#cP2010  7 27  0  0  0.00000000    2877 PHASE IGS08 KIN AIUB
## 1594 172800.00000000    30.00000000 55404 0.0000000000000
+    1   L09  0  0  0  0  0  0  0  0  0  0  0  0  0  0  0  0
+          0  0  0  0  0  0  0  0  0  0  0  0  0  0  0  0  0
+          0  0  0  0  0  0  0  0  0  0  0  0  0  0  0  0  0
+          0  0  0  0  0  0  0  0  0  0  0  0  0  0  0  0  0
+          0  0  0  0  0  0  0  0  0  0  0  0  0  0  0  0  0
++         0  0  0  0  0  0  0  0  0  0  0  0  0  0  0  0  0
++         0  0  0  0  0  0  0  0  0  0  0  0  0  0  0  0  0
++         0  0  0  0  0  0  0  0  0  0  0  0  0  0  0  0  0
++         0  0  0  0  0  0  0  0  0  0  0  0  0  0  0  0  0
++         0  0  0  0  0  0  0  0  0  0  0  0  0  0  0  0  0
%c L  cc GPS ccc cccc cccc cccc cccc ccccc ccccc ccccc ccccc
%c cc cc ccc ccc cccc cccc cccc cccc ccccc ccccc ccccc ccccc
%f  1.2500000  1.025000000  0.00000000000  0.000000000000000
%f  0.0000000  0.000000000  0.00000000000  0.000000000000000
%i    0    0    0    0      0      0      0      0         0
%i    0    0    0    0      0      0      0      0         0
/* LEOPOD_102080_GRCA: Kinematic orbit generation           
/*                                                          
/*                                                          
/*                                                          
*  2010  7 27 13 10 30.00000000
PL09   4859.652638  -1110.774707  -4699.409352      0.001719
*  2010  7 27 13 11  0.00000000
PL09   4702.837377  -1080.243459  -4862.891927      0.001767
*  2010  7 27 13 11 30.00000000
PL09   4540.946565  -1047.817477  -5020.945289      0.001828
*  2010  7 27 13 12  0.00000000
PL09   4374.168539  -1013.511063  -5173.393655      0.001811
*  2010  7 27 13 12 30.00000000
PL09   4202.696988   -977.341414  -5320.067586      0.001817
*  2010  7 27 13 13  0.00000000
PL09   4026.730601   -939.328641  -5460.804049      0.001805
*  2010  7 27 13 13 30.00000000
PL09   3846.472877   -899.495764  -5595.446634      0.001765
*  2010  7 27 13 14  0.00000000
PL09   3662.131924   -857.868709  -5723.845761      0.001798
*  2010  7 27 13 14 30.00000000
PL09   3473.920124   -814.476292  -5845.858734      0.001808
*  2010  7 27 13 15  0.00000000
PL09   3282.053959   -769.350196  -5961.349945      0.001751
*  2010  7 27 13 15 30.00000000
PL09   3086.753769   -722.524977  -6070.191082      0.001729
*  2010  7 27 13 16  0.00000000
PL09   2888.243463   -674.038030  -6172.261197      0.001748
*  2010  7 27 13 16 30.00000000
PL09   2686.750233   -623.929524  -6267.446792      0.001770
*  2010  7 27 13 17  0.00000000
PL09   2482.504361   -572.242444  -6355.642007      0.001801
*  2010  7 27 13 17 30.00000000
PL09   2275.738920   -519.022492  -6436.748662      0.001817
*  2010  7 27 13 18  0.00000000
PL09   2066.689522   -464.318093  -6510.676415      0.001802
*  2010  7 27 13 18 30.00000000
PL09   1855.594067   -408.180349  -6577.342829      0.001785
*  2010  7 27 13 19  0.00000000
PL09   1642.692468   -350.662990  -6636.673478      0.001766
*  2010  7 27 13 19 30.00000000
PL09   1428.226383   -291.822327  -6688.602020      0.001719
*  2010  7 27 13 20  0.00000000
PL09   1212.438932   -231.717193  -6733.070282      0.001686
*  2010  7 27 13 20 30.00000000
PL09    995.574426   -170.408887  -6770.028299      0.001708
*  2010  7 27 13 21  0.00000000
PL09    777.878097   -107.961112  -6799.434374      0.001757
*  2010  7 27 13 21 30.00000000
PL09    559.595830    -44.439936  -6821.255048      0.001753
*  2010  7 27 13 22  0.00000000
PL09    340.973910     20.086323  -6835.465286      0.001743
*  2010  7 27 13 22 30.00000000
PL09    122.258731     85.547129  -6842.048401      0.001723
*  2010  7 27 13 23  0.00000000
PL09    -96.303478    151.869812  -6840.996158      0.001778
*  2010  7 27 13 23 30.00000000
PL09   -314.466922    218.979644  -6832.308651      0.001788
*  2010  7 27 13 24  0.00000000
PL09   -531.986491    286.799936  -6815.994380      0.001736
*  2010  7 27 13 24 30.00000000
PL09   -748.618071    355.252101  -6792.070365      0.001749
*  2010  7 27 13 25  0.00000000
PL09   -964.118777    424.255768  -6760.561941      0.001723
*  2010  7 27 13 25 30.00000000
PL09  -1178.247243    493.728861  -6721.502838      0.001743
*  2010  7 27 13 26  0.00000000
PL09  -1390.763908    563.587692  -6674.935159      0.001757
*  2010  7 27 13 26 30.00000000
PL09  -1601.431239    633.747078  -6620.909274      0.001793
*  2010  7 27 13 27  0.00000000
PL09  -1810.014002    704.120407  -6559.483821      0.001817
*  2010  7 27 13 27 30.00000000
PL09  -2016.279523    774.619778  -6490.725641      0.001836
*  2010  7 27 13 28  0.00000000
PL09  -2219.997945    845.156081  -6414.709722      0.001834
*  2010  7 27 13 28 30.00000000
PL09  -2420.942489    915.639118  -6331.519130      0.001785
*  2010  7 27 13 29  0.00000000
PL09  -2618.889701    985.977704  -6241.244931      0.001748
*  2010  7 27 13 29 30.00000000
PL09  -2813.619698   1056.079808  -6143.986089      0.001700
*  2010  7 27 13 30  0.00000000
PL09  -3004.916418   1125.852616  -6039.849392      0.001673
*  2010  7 27 13 30 30.00000000
PL09  -3192.567839   1195.202735  -5928.949362      0.001679
*  2010  7 27 13 31  0.00000000
PL09  -3376.366307   1264.036230  -5811.408116      0.001724
*  2010  7 27 13 31 30.00000000
PL09  -3556.108641   1332.258780  -5687.355213      0.001694
*  2010  7 27 13 32  0.00000000
PL09  -3731.596514   1399.775839  -5556.927634      0.001702
*  2010  7 27 13 32 30.00000000
PL09  -3902.636563   1466.492699  -5420.269529      0.001713
*  2010  7 27 13 33  0.00000000
PL09  -4069.040658   1532.314661  -5277.532125      0.001749
*  2010  7 27 13 33 30.00000000
PL09  -4230.626095   1597.147157  -5128.873549      0.001757
*  2010  7 27 13 34  0.00000000
PL09  -4387.215868   1660.895898  -4974.458689      0.001765
*  2010  7 27 13 34 30.00000000
PL09  -4538.638793   1723.466983  -4814.458994      0.001759
*  2010  7 27 13 35  0.00000000
PL09  -4684.729754   1784.767060  -4649.052302      0.001718
*  2010  7 27 13 35 30.00000000
PL09  -4825.329911   1844.703443  -4478.422663      0.001738
*  2010  7 27 13 36  0.00000000
PL09  -4960.286834   1903.184233  -4302.760106      0.001755
*  2010  7 27 13 36 30.00000000
PL09  -5089.454707   1960.118493  -4122.260469      0.001769
*  2010  7 27 13 37  0.00000000
PL09  -5212.694505   2015.416325  -3937.125189      0.001770
*  2010  7 27 13 37 30.00000000
PL09  -5329.874145   2068.989070  -3747.561052      0.001758
*  2010  7 27 13 38  0.00000000
PL09  -5440.868664   2120.749385  -3553.780011      0.001756
*  2010  7 27 13 38 30.00000000
PL09  -5545.560346   2170.611430  -3355.998919      0.001759
*  2010  7 27 13 39  0.00000000
PL09  -5643.838864   2218.490930  -3154.439292      0.001723
*  2010  7 27 13 39 30.00000000
PL09  -5735.601451   2264.305436  -2949.327080      0.001726
*  2010  7 27 13 40  0.00000000
PL09  -5820.752974   2307.974289  -2740.892385      0.001748
*  2010  7 27 13 40 30.00000000
PL09  -5899.206031   2349.418862  -2529.369204      0.001714
*  2010  7 27 13 41  0.00000000
PL09  -5970.881135   2388.562676  -2314.995208      0.001729
*  2010  7 27 13 41 30.00000000
PL09  -6035.706733   2425.331484  -2098.011405      0.001767
*  2010  7 27 13 42  0.00000000
PL09  -6093.619294   2459.653428  -1878.661888      0.001737
*  2010  7 27 13 42 30.00000000
PL09  -6144.563454   2491.459164  -1657.193578      0.001740
*  2010  7 27 13 43  0.00000000
PL09  -6188.492004   2520.681970  -1433.855912      0.001771
*  2010  7 27 13 43 30.00000000
PL09  -6225.365938   2547.257827  -1208.900550      0.001760
*  2010  7 27 13 44  0.00000000
PL09  -6255.154564   2571.125608   -982.581092      0.001739
*  2010  7 27 13 44 30.00000000
PL09  -6277.835520   2592.227135   -755.152800      0.001791
*  2010  7 27 13 45  0.00000000
PL09  -6293.394712   2610.507269   -526.872212      0.001795
*  2010  7 27 13 45 30.00000000
PL09  -6301.826418   2625.914046   -297.996955      0.001745
*  2010  7 27 13 46  0.00000000
PL09  -6303.133249   2638.398771    -68.785359      0.001717
*  2010  7 27 13 46 30.00000000
PL09  -6297.326120   2647.916085    160.503811      0.001713
*  2010  7 27 13 47  0.00000000
PL09  -6284.424220   2654.424076    389.611698      0.001691
*  2010  7 27 13 47 30.00000000
PL09  -6264.455007   2657.884349    618.279611      0.001676
*  2010  7 27 13 48  0.00000000
PL09  -6237.454160   2658.262138    846.249335      0.001693
*  2010  7 27 13 48 30.00000000
PL09  -6203.465497   2655.526329   1073.263464      0.001731
*  2010  7 27 13 49  0.00000000
PL09  -6162.540912   2649.649596   1299.065698      0.001772
*  2010  7 27 13 49 30.00000000
PL09  -6114.740328   2640.608405   1523.401129      0.001810
*  2010  7 27 13 50  0.00000000
PL09  -6060.131545   2628.383094   1746.016570      0.001822
*  2010  7 27 13 50 30.00000000
PL09  -5998.790218   2612.957961   1966.660843      0.001834
*  2010  7 27 13 51  0.00000000
PL09  -5930.799637   2594.321236   2185.085002      0.001787
*  2010  7 27 13 51 30.00000000
PL09  -5856.250758   2572.465233   2401.042745      0.001786
*  2010  7 27 13 52  0.00000000
PL09  -5775.241967   2547.386283   2614.290623      0.001792
*  2010  7 27 13 52 30.00000000
PL09  -5687.878966   2519.084835   2824.588332      0.001766
*  2010  7 27 13 53  0.00000000
PL09  -5594.274638   2487.565450   3031.699001      0.001707
*  2010  7 27 13 53 30.00000000
PL09  -5494.548936   2452.836835   3235.389537      0.001755
*  2010  7 27 13 54  0.00000000
PL09  -5388.828556   2414.911839   3435.430737      0.001746
*  2010  7 27 13 54 30.00000000
PL09  -5277.246961   2373.807488   3631.597697      0.001725
*  2010  7 27 13 55  0.00000000
PL09  -5159.944082   2329.544973   3823.670001      0.001769
*  2010  7 27 13 55 30.00000000
PL09  -5037.066152   2282.149662   4011.431948      0.001743
*  2010  7 27 13 56  0.00000000
PL09  -4908.765530   2231.651077   4194.672837      0.001717
*  2010  7 27 13 56 30.00000000
PL09  -4775.200509   2178.082893   4373.187232      0.001767
